OBJECT_NAME,OBJECT_ID,EPOCH,MEAN_MOTION,ECCENTRICITY,INCLINATION,RA_OF_ASC_NODE,ARG_OF_PERICENTER,MEAN_ANOMALY,EPHEMERIS_TYPE,CLASSIFICATION_TYPE,NORAD_CAT_ID,ELEMENT_SET_NO,REV_AT_EPOCH,BSTAR,MEAN_MOTION_DOT,MEAN_MOTION_DDOT
CHUANGXIN 1-02 (CX-1-02),2008-056B,2026-07-09T19:48:36.158400,14.30157540,.00155,98.6134,216.8656,75.0817,285.2081,0,U,33434,999,92185,.95325E-5,-.19E-6,0
STARS (KUKAI),2009-002G,2026-07-09T18:17:35.234304,14.95908175,.0010069,98.1555,138.9952,94.0114,266.2257,0,U,33498,999,94185,.16294E-3,.1761E-4,0
KKS-1 (KISEKI),2009-002H,2026-07-09T18:57:26.349120,14.83181134,.0006992,98.1179,113.5903,207.8239,152.2601,0,U,33499,999,93954,.1083E-3,.828E-5,0
UK-DMC 2,2009-041C,2026-07-09T19:11:15.876384,14.76090056,.0001451,97.8861,325.2172,102.0765,258.0607,0,U,35683,999,90990,.10777E-3,.694E-5,0
OCEANSAT-2,2009-051A,2026-07-09T20:39:17.930880,13.99656939,.0016993,98.2318,175.4485,168.9582,191.1961,0,U,35931,999,88250,-.88695E-4,-.167E-5,0
SWISSCUBE,2009-051B,2026-07-09T12:58:48.892224,14.62524151,.0007556,98.4016,98.8171,134.3316,225.8505,0,U,35932,999,89242,.13666E-3,.644E-5,0
BEESAT-1,2009-051C,2026-07-09T13:29:13.081344,14.61756321,.0005799,98.3943,98.4270,144.7622,215.3963,0,U,35933,999,89245,.1159E-3,.529E-5,0
ITUPSAT1,2009-051E,2026-07-08T13:04:29.830080,14.60472478,.00076108,98.4027,96.5634,162.4704,197.6760,0,U,35935,999,89185,.12544193E-3,.56E-5,0
DMSP 5D-3 F18 (USA 210),2009-057A,2026-07-09T20:10:46.684704,14.14909272,.0010905,98.9051,171.5621,180.5830,179.5332,0,U,35951,999,86279,.13252E-3,.211E-5,0
PROBA-2,2009-059B,2026-07-09T17:31:14.458080,14.54872119,.0012624,98.2458,13.7710,206.1058,153.9504,0,U,36037,999,88480,.39764E-4,.125E-5,0
YAOGAN-7,2009-069A,2026-07-08T14:48:32.591232,14.78031471,.00239353,98.0044,75.3492,333.3807,26.6172,0,U,36110,999,89279,.54067378E-4,.339E-5,0
XIWANG-1 (HOPE-1),2009-072B,2026-07-09T19:34:29.459136,13.16440330,.0007385,100.4032,144.2872,176.8858,183.2302,0,U,36122,999,79598,-.18461E-4,-.51E-6,0
COSMOS 2463,2010-017A,2026-07-09T01:33:01.329408,13.71666955,.00375225,82.9585,233.6321,70.3576,306.3102,0,U,36519,999,81093,.25330126E-4,.38E-6,0
CARTOSAT-2B,2010-035A,2026-07-09T20:58:35.999328,14.78611521,.0012446,97.9943,241.2773,114.4233,245.8278,0,U,36795,999,86320,-.14781E-4,-.161E-5,0
TISAT 1,2010-035E,2026-07-09T14:00:34.219296,15.32585813,.0004097,98.0702,139.1348,131.0944,229.0650,0,U,36799,999,87113,.47466E-3,.14864E-3,0
YAOGAN-10,2010-038A,2026-07-09T20:36:06.628320,14.85419769,.0001732,97.8978,214.0817,83.2898,18.9846,0,U,36834,999,86057,.14438E-3,.119E-4,0
SHIJIAN-6 04B (SJ-6 04B),2010-051B,2026-07-09T20:19:42.108960,14.99381271,.0007162,97.8746,196.4982,229.9809,130.0786,0,U,37180,999,85907,.46713E-4,.51E-5,0
FENGYUN 3B,2010-059A,2026-07-09T20:54:51.722208,14.14844541,.0023048,98.9611,236.9809,120.9574,343.1493,0,U,37214,999,81063,-.13375E-3,-.304E-5,0
COSMO-SKYMED 4,2010-060A,2026-07-09T20:34:23.909952,14.82145290,.0001481,97.8897,14.1292,84.5478,275.5904,0,U,37216,999,84792,.40122E-4,.267E-5,0
O/OREOS (USA 219),2010-062C,2026-07-09T05:29:01.232736,14.93837463,.00136365,71.9709,30.4075,16.8017,343.3602,0,U,37224,999,11993,.14125066E-3,.1439E-4,0
RESOURCESAT-2,2011-015A,2026-07-09T18:03:17.396352,14.21605126,.0011268,98.7634,258.0371,186.4486,173.6548,0,U,37387,999,78938,.21523E-4,.3E-7,0
YOUTHSAT,2011-015B,2026-07-09T16:58:48.304128,14.25639148,.0013177,98.3698,163.7479,276.8329,257.0023,0,U,37388,999,79084,.60952E-4,.103E-5,0
APRIZESAT 6,2011-044F,2026-07-09T06:02:21.581088,14.76951131,.00435426,98.2345,101.2003,17.1771,143.8073,0,U,37793,999,80040,.86959659E-4,.565E-5,0
JUGNU,2011-058B,2026-07-09T00:44:46.468032,14.13782334,.00183769,19.9588,175.7154,318.1720,84.2013,0,U,37839,999,76212,.60431416E-4,.383E-5,0
SRMSAT,2011-058D,2026-07-09T14:59:25.033056,14.11580289,.0011875,19.9720,283.6652,90.4763,307.0339,0,U,37841,999,76099,.48802E-4,.355E-5,0
