CHUANGXIN 1-02 (CX-1-02)
1 33434U 08056B   26190.82541850 -.00000019  00000+0  95325-5 0  9996
2 33434  98.6134 216.8656 0015500  75.0817 285.2081 14.30157540921854
STARS (KUKAI)           
1 33498U 09002G   26190.76221336  .00001761  00000+0  16294-3 0  9995
2 33498  98.1555 138.9952 0010069  94.0114 266.2257 14.95908175941850
KKS-1 (KISEKI)          
1 33499U 09002H   26190.78988830  .00000828  00000+0  10830-3 0  9990
2 33499  98.1179 113.5903 0006992 207.8239 152.2601 14.83181134939545
UK-DMC 2                
1 35683U 09041C   26190.79948931  .00000694  00000+0  10777-3 0  9990
2 35683  97.8861 325.2172 0001451 102.0765 258.0607 14.76090056909903
OCEANSAT-2              
1 35931U 09051A   26190.86062420 -.00000167  00000+0 -88695-4 0  9997
2 35931  98.2318 175.4485 0016993 168.9582 191.1961 13.99656939882506
SWISSCUBE               
1 35932U 09051B   26190.54084366  .00000644  00000+0  13666-3 0  9999
2 35932  98.4016  98.8171 0007556 134.3316 225.8505 14.62524151892423
BEESAT-1                
1 35933U 09051C   26190.56195696  .00000529  00000+0  11590-3 0  9997
2 35933  98.3943  98.4270 0005799 144.7622 215.3963 14.61756321892450
ITUPSAT1                
1 35935U 09051E   26189.54478970  .00000560  00000+0  12544-3 0  9999
2 35935  98.4027  96.5634 0007610 162.4704 197.6760 14.60472478891858
DMSP 5D-3 F18 (USA 210) 
1 35951U 09057A   26190.84081811  .00000211  00000+0  13252-3 0  9992
2 35951  98.9051 171.5621 0010905 180.5830 179.5332 14.14909272862791
PROBA-2                 
1 36037U 09059B   26190.73002845  .00000125  00000+0  39764-4 0  9999
2 36037  98.2458  13.7710 0012624 206.1058 153.9504 14.54872119884800
YAOGAN-7                
1 36110U 09069A   26189.61704388  .00000339  00000+0  54067-4 0  9998
2 36110  98.0044  75.3492 0023935 333.3807  26.6172 14.78031471892792
XIWANG-1 (HOPE-1)       
1 36122U 09072B   26190.81561874 -.00000051  00000+0 -18461-4 0  9991
2 36122 100.4032 144.2872 0007385 176.8858 183.2302 13.16440330795982
COSMOS 2463             
1 36519U 10017A   26190.06459872  .00000038  00000+0  25330-4 0  9999
2 36519  82.9585 233.6321 0037522  70.3576 306.3102 13.71666955810935
CARTOSAT-2B             
1 36795U 10035A   26190.87402777 -.00000161  00000+0 -14781-4 0  9993
2 36795  97.9943 241.2773 0012446 114.4233 245.8278 14.78611521863205
TISAT 1                 
1 36799U 10035E   26190.58372939  .00014864  00000+0  47466-3 0  9999
2 36799  98.0702 139.1348 0004097 131.0944 229.0650 15.32585813871138
YAOGAN-10               
1 36834U 10038A   26190.85841005  .00001190  00000+0  14438-3 0  9998
2 36834  97.8978 214.0817 0001732  83.2898  18.9846 14.85419769860574
SHIJIAN-6 04B (SJ-6 04B)
1 37180U 10051B   26190.84701515  .00000510  00000+0  46713-4 0  9995
2 37180  97.8746 196.4982 0007162 229.9809 130.0786 14.99381271859075
FENGYUN 3B              
1 37214U 10059A   26190.87143197 -.00000304  00000+0 -13375-3 0  9990
2 37214  98.9611 236.9809 0023048 120.9574 343.1493 14.14844541810636
COSMO-SKYMED 4          
1 37216U 10060A   26190.85722118  .00000267  00000+0  40122-4 0  9995
2 37216  97.8897  14.1292 0001481  84.5478 275.5904 14.82145290847926
O/OREOS (USA 219)       
1 37224U 10062C   26190.22848649  .00001439  00000+0  14125-3 0  9990
2 37224  71.9709  30.4075 0013636  16.8017 343.3602 14.93837463119936
RESOURCESAT-2           
1 37387U 11015A   26190.75228468  .00000003  00000+0  21523-4 0  9995
2 37387  98.7634 258.0371 0011268 186.4486 173.6548 14.21605126789385
YOUTHSAT                
1 37388U 11015B   26190.70750352  .00000103  00000+0  60952-4 0  9993
2 37388  98.3698 163.7479 0013177 276.8329 257.0023 14.25639148790847
APRIZESAT 6             
1 37793U 11044F   26190.25163867  .00000565  00000+0  86960-4 0  9993
2 37793  98.2345 101.2003 0043542  17.1771 143.8073 14.76951131800407
JUGNU                   
1 37839U 11058B   26190.03109338  .00000383  00000+0  60431-4 0  9991
2 37839  19.9588 175.7154 0018376 318.1720  84.2013 14.13782334762121
SRMSAT                  
1 37841U 11058D   26190.62459529  .00000355  00000+0  48802-4 0  9996
2 37841  19.9720 283.6652 0011875  90.4763 307.0339 14.11580289760991
